ONEWEB-0605             
1 54669U 22166AD  26164.73161987 -.00000015  00000+0 -68706-4 0  9996
2 54669  87.9255 244.6745 0002570  91.4910 268.6518 13.21826938171051
ONEWEB-0606             
1 54670U 22166AE  26164.75348402 -.00000065  00000+0 -18861-3 0  9990
2 54670  87.9253 244.6828 0001961 103.0368 257.0985 13.21826385171116
ONEWEB-0607             
1 54671U 22166AF  26164.71982463  .00000074  00000+0  14675-3 0  9995
2 54671  87.9262 244.6600 0001960  94.6134 265.5224 13.21824129171080
ONEWEB-0608             
1 54672U 22166AG  26164.72655738 -.00000009  00000+0 -54447-4 0  9991
2 54672  87.9264 244.6553 0002346  87.8271 272.3131 13.21827644171094
ONEWEB-0610             
1 54673U 22166AH  26164.78206433  .00000010  00000+0 -76446-5 0  9997
2 54673  87.9253 244.6589 0002173  82.4702 277.6679 13.21823896171001
ONEWEB-0611             
1 54674U 22166AJ  26164.77532912 -.00000024  00000+0 -89645-4 0  9991
2 54674  87.9254 244.6561 0002050 103.1141 257.0222 13.21827447170994
ONEWEB-0612             
1 54675U 22166AK  26164.71310711  .00000034  00000+0  50589-4 0  9991
2 54675  87.9266 244.6637 0002109  94.8563 265.2811 13.21824878170979
ONEWEB-0615             
1 54676U 22166AL  26164.76862441  .00000031  00000+0  43504-4 0  9995
2 54676  87.9256 244.6673 0001843 105.1009 255.0329 13.21826299170996
ONEWEB-0655             
1 54677U 22166AM  26164.74507331 -.00000083  00000+0 -23347-3 0  9999
2 54677  87.9256 244.6735 0001839  93.9986 266.1358 13.21826107170981
ONEWEB-0659             
1 54678U 22166AN  26164.76189292 -.00000117  00000+0 -31552-3 0  9999
2 54678  87.9254 244.6698 0002071 101.2058 258.9309 13.21827183171071
ONEWEB-0685             
1 54679U 22166AP  26164.76203301 -.00000065  00000+0 -18956-3 0  9993
2 54679  87.9252 244.6622 0002054  88.4762 271.6607 13.21846980170962
ONEWEB-0712             
1 54680U 22166AQ  26164.71615443  .00000054  00000+0  10717-3 0  9997
2 54680  87.9102 229.4637 0001610  90.4493 269.6823 13.16594202171606
ONEWEB-0714             
1 54681U 22166AR  26164.76692194 -.00000051  00000+0 -15404-3 0  9998
2 54681  87.9253 244.6584 0001705  97.6852 262.4476 13.21824049171085
ONEWEB-0532             
1 55140U 23004A   26164.84389044  .00011623  00000+0  29822-1 0  9999
2 55140  87.9147   6.5310 0002464  93.1188 267.0226 13.17743598167146
ONEWEB-0533             
1 55141U 23004B   26164.79802503  .00000177  00000+0  45697-3 0  9996
2 55141  87.8944 351.3448 0001851  83.5130 276.6209 13.12444957167614
ONEWEB-0541             
1 55142U 23004C   26164.82524490  .00000605  00000+0  16722-2 0  9999
2 55142  87.8899  21.7270 0001860  90.9938 269.1403 13.11418439165507
ONEWEB-0543             
1 55143U 23004D   26164.74942757  .00000047  00000+0  86120-4 0  9992
2 55143  87.9158 336.1539 0001617  90.5430 269.5888 13.18685240169240
ONEWEB-0544             
1 55144U 23004E   26164.51505564  .00000092  00000+0  20155-3 0  9994
2 55144  87.9158 336.2004 0001715  97.3721 262.7607 13.18686310169216
ONEWEB-0560             
1 55145U 23004F   26164.73594242  .00000054  00000+0  10403-3 0  9993
2 55145  87.9159 336.1457 0001607  97.5340 262.5975 13.18686944169251
ONEWEB-0565             
1 55146U 23004G   26164.72919684  .00000135  00000+0  31052-3 0  9997
2 55146  87.9149 336.1751 0002001 104.2341 255.9013 13.18686100169246
ONEWEB-0567             
1 55147U 23004H   26164.87420979  .00000025  00000+0  29890-4 0  9994
2 55147  87.9159 336.1301 0001839 104.3038 255.8299 13.18685855169264
ONEWEB-0569             
1 55148U 23004J   26164.80866707  .00000279  00000+0  73026-3 0  9991
2 55148  87.8959 320.8921 0001457 126.1238 234.0026 13.13469426169738
ONEWEB-0570             
1 55149U 23004K   26164.86576661  .00000047  00000+0  85354-4 0  9996
2 55149  87.9158 336.1297 0002229  95.3592 264.7794 13.18685630169256
ONEWEB-0571             
1 55150U 23004L   26164.85903194 -.00000028  00000+0 -10497-3 0  9998
2 55150  87.9158 336.1304 0002101 129.1717 230.9602 13.18688077169263
ONEWEB-0572             
1 55151U 23004M   26164.79846123  .00000053  00000+0  10355-3 0  9999
2 55151  87.9136   6.5397 0001916  93.8397 266.2953 13.17648860167033
ONEWEB-0573             
1 55152U 23004N   26164.85228204  .00000010  00000+0 -80832-5 0  9994
2 55152  87.9159 336.1331 0002096 117.0524 243.0822 13.18686132169259
ONEWEB-0588             
1 55153U 23004P   26164.84553556  .00000022  00000+0  22874-4 0  9998
2 55153  87.9157 336.1348 0002308  98.1397 261.9997 13.18685104169259
ONEWEB-0598             
1 55154U 23004Q   26164.87949294 -.00000018  00000+0 -85823-4 0  9990
2 55154  87.8888  21.7275 0001556 108.7421 251.3876 13.11419685165466
ONEWEB-0599             
1 55155U 23004R   26164.83558870  .00000022  00000+0  23794-4 0  9995
2 55155  87.9134   6.5311 0001613  87.7249 272.4067 13.17648559167044
ONEWEB-0614             
1 55156U 23004S   26164.87439894 -.00000434  00000+0 -12607-2 0  9992
2 55156  87.8890  21.7373 0002014  82.5253 277.6104 13.11418133165408
ONEWEB-0616             
1 55157U 23004T   26164.80184391  .00000071  00000+0  15021-3 0  9994
2 55157  87.9136   6.5412 0001032  68.9693 291.1548 13.17649229167259
