OBJECT_NAME,OBJECT_ID,EPOCH,MEAN_MOTION,ECCENTRICITY,INCLINATION,RA_OF_ASC_NODE,ARG_OF_PERICENTER,MEAN_ANOMALY,EPHEMERIS_TYPE,CLASSIFICATION_TYPE,NORAD_CAT_ID,ELEMENT_SET_NO,REV_AT_EPOCH,BSTAR,MEAN_MOTION_DOT,MEAN_MOTION_DDOT
ONEWEB-0605,2022-166AD,2026-06-13T17:33:31.956768,13.21826938,.000257,87.9255,244.6745,91.4910,268.6518,0,U,54669,999,17105,-.68706E-4,-.15E-6,0
ONEWEB-0606,2022-166AE,2026-06-13T18:05:01.019328,13.21826385,.0001961,87.9253,244.6828,103.0368,257.0985,0,U,54670,999,17111,-.18861E-3,-.65E-6,0
ONEWEB-0607,2022-166AF,2026-06-13T17:16:32.848032,13.21824129,.000196,87.9262,244.6600,94.6134,265.5224,0,U,54671,999,17108,.14675E-3,.74E-6,0
ONEWEB-0608,2022-166AG,2026-06-13T17:26:14.557632,13.21827644,.0002346,87.9264,244.6553,87.8271,272.3131,0,U,54672,999,17109,-.54447E-4,-.9E-7,0
ONEWEB-0610,2022-166AH,2026-06-13T18:46:10.358112,13.21823896,.0002173,87.9253,244.6589,82.4702,277.6679,0,U,54673,999,17100,-.76446E-5,.1E-6,0
ONEWEB-0611,2022-166AJ,2026-06-13T18:36:28.435968,13.21827447,.000205,87.9254,244.6561,103.1141,257.0222,0,U,54674,999,17099,-.89645E-4,-.24E-6,0
ONEWEB-0612,2022-166AK,2026-06-13T17:06:52.454304,13.21824878,.0002109,87.9266,244.6637,94.8563,265.2811,0,U,54675,999,17097,.50589E-4,.34E-6,0
ONEWEB-0615,2022-166AL,2026-06-13T18:26:49.149024,13.21826299,.0001843,87.9256,244.6673,105.1009,255.0329,0,U,54676,999,17099,.43504E-4,.31E-6,0
ONEWEB-0655,2022-166AM,2026-06-13T17:52:54.333984,13.21826107,.0001839,87.9256,244.6735,93.9986,266.1358,0,U,54677,999,17098,-.23347E-3,-.83E-6,0
ONEWEB-0659,2022-166AN,2026-06-13T18:17:07.548288,13.21827183,.0002071,87.9254,244.6698,101.2058,258.9309,0,U,54678,999,17107,-.31552E-3,-.117E-5,0
ONEWEB-0685,2022-166AP,2026-06-13T18:17:19.652064,13.21846980,.0002054,87.9252,244.6622,88.4762,271.6607,0,U,54679,999,17096,-.18956E-3,-.65E-6,0
ONEWEB-0712,2022-166AQ,2026-06-13T17:11:15.742752,13.16594202,.000161,87.9102,229.4637,90.4493,269.6823,0,U,54680,999,17160,.10717E-3,.54E-6,0
ONEWEB-0714,2022-166AR,2026-06-13T18:24:22.055616,13.21824049,.0001705,87.9253,244.6584,97.6852,262.4476,0,U,54681,999,17108,-.15404E-3,-.51E-6,0
ONEWEB-0532,2023-004A,2026-06-13T20:15:12.134016,13.17743598,.0002464,87.9147,6.5310,93.1188,267.0226,0,U,55140,999,16714,.29822E-1,.11623E-3,0
ONEWEB-0533,2023-004B,2026-06-13T19:09:09.362592,13.12444957,.0001851,87.8944,351.3448,83.5130,276.6209,0,U,55141,999,16761,.45697E-3,.177E-5,0
ONEWEB-0541,2023-004C,2026-06-13T19:48:21.159360,13.11418439,.000186,87.8899,21.7270,90.9938,269.1403,0,U,55142,999,16550,.16722E-2,.605E-5,0
ONEWEB-0543,2023-004D,2026-06-13T17:59:10.542048,13.18685240,.0001617,87.9158,336.1539,90.5430,269.5888,0,U,55143,999,16924,.8612E-4,.47E-6,0
ONEWEB-0544,2023-004E,2026-06-13T12:21:40.807296,13.18686310,.00017156,87.9158,336.2004,97.3721,262.7607,0,U,55144,999,16921,.20154766E-3,.92E-6,0
ONEWEB-0560,2023-004F,2026-06-13T17:39:45.425088,13.18686944,.0001607,87.9159,336.1457,97.5340,262.5975,0,U,55145,999,16925,.10403E-3,.54E-6,0
ONEWEB-0565,2023-004G,2026-06-13T17:30:02.606976,13.18686100,.0002001,87.9149,336.1751,104.2341,255.9013,0,U,55146,999,16924,.31052E-3,.135E-5,0
ONEWEB-0567,2023-004H,2026-06-13T20:58:51.725856,13.18685855,.0001839,87.9159,336.1301,104.3038,255.8299,0,U,55147,999,16926,.2989E-4,.25E-6,0
ONEWEB-0569,2023-004J,2026-06-13T19:24:28.834848,13.13469426,.0001457,87.8959,320.8921,126.1238,234.0026,0,U,55148,999,16973,.73026E-3,.279E-5,0
ONEWEB-0570,2023-004K,2026-06-13T20:46:42.235104,13.18685630,.0002229,87.9158,336.1297,95.3592,264.7794,0,U,55149,999,16925,.85354E-4,.47E-6,0
ONEWEB-0571,2023-004L,2026-06-13T20:37:00.359616,13.18688077,.0002101,87.9158,336.1304,129.1717,230.9602,0,U,55150,999,16926,-.10497E-3,-.28E-6,0
ONEWEB-0572,2023-004M,2026-06-13T19:09:47.050272,13.17648860,.0001916,87.9136,6.5397,93.8397,266.2953,0,U,55151,999,16703,.10355E-3,.53E-6,0
ONEWEB-0573,2023-004N,2026-06-13T20:27:17.168256,13.18686132,.0002096,87.9159,336.1331,117.0524,243.0822,0,U,55152,999,16925,-.80832E-5,.1E-6,0
ONEWEB-0588,2023-004P,2026-06-13T20:17:34.272384,13.18685104,.0002308,87.9157,336.1348,98.1397,261.9997,0,U,55153,999,16925,.22874E-4,.22E-6,0
ONEWEB-0598,2023-004Q,2026-06-13T21:06:28.190016,13.11419685,.0001556,87.8888,21.7275,108.7421,251.3876,0,U,55154,999,16546,-.85823E-4,-.18E-6,0
ONEWEB-0599,2023-004R,2026-06-13T20:03:14.863680,13.17648559,.0001613,87.9134,6.5311,87.7249,272.4067,0,U,55155,999,16704,.23794E-4,.22E-6,0
ONEWEB-0614,2023-004S,2026-06-13T20:59:08.068416,13.11418133,.0002014,87.8890,21.7373,82.5253,277.6104,0,U,55156,999,16540,-.12607E-2,-.434E-5,0
ONEWEB-0616,2023-004T,2026-06-13T19:14:39.313824,13.17649229,.0001032,87.9136,6.5412,68.9693,291.1548,0,U,55157,999,16725,.15021E-3,.71E-6,0
